STARLINK-36726          
1 67925U 26036X   26067.55971696  .00284825  00000+0  13041-2 0  9994
2 67925  42.9983 256.5085 0001842 245.9931 114.0748 15.82131814  3490
STARLINK-36758          
1 67926U 26036Y   26067.55896909  .00306701  00000+0  14052-2 0  9999
2 67926  42.9987 256.5014 0001963 233.9897 126.0793 15.82058950  3491
STARLINK-36728          
1 67927U 26036Z   26067.55745034  .00407604  00000+0  18316-2 0  9993
2 67927  42.9987 256.4889 0001911 264.6537  95.4117 15.82213901  3494
STARLINK-36771          
1 67928U 26036AA  26067.55822185  .00386751  00000+0  17527-2 0  9999
2 67928  42.9989 256.4950 0001922 291.2908  68.7758 15.82085380  3498
STARLINK-36809          
1 67929U 26036AB  26067.55672309  .00382265  00000+0  17335-2 0  9994
2 67929  42.9988 256.4825 0001921 280.6471  79.4184 15.82083061  3491
STARLINK-36865          
1 67930U 26036AC  26067.55522501  .00304771  00000+0  13962-2 0  9992
2 67930  42.9989 256.4698 0001857 289.0675  70.9995 15.82067693  3498
STARLINK-36781          
1 67931U 26036AD  26067.55595319  .00485101  00000+0  21582-2 0  9994
2 67931  42.9989 256.4762 0001708 281.4035  78.6645 15.82228460  3490
STARLINK-36301          
1 67932U 26037A   26067.50002314 -.00870925  00000+0 -44344-2 0  9994
2 67932  42.9993 205.8711 0000980 268.7649  58.7101 15.82647088  2911
STARLINK-36852          
1 67933U 26037B   26067.50002314 -.01203148  00000+0 -61467-2 0  9998
2 67933  42.9994 205.8609 0001320 264.1012  67.4244 15.82954143  3001
STARLINK-36861          
1 67934U 26037C   26067.50002314 -.01289757  00000+0 -66067-2 0  9990
2 67934  42.9993 205.8506 0001216 269.6954  65.9707 15.83089213  3001
STARLINK-36860          
1 67935U 26037D   26067.50002314 -.01369588  00000+0 -70328-2 0  9997
2 67935  42.9993 205.8404 0001545 265.9247  73.8904 15.83212500  3002
STARLINK-36848          
1 67936U 26037E   26067.50002314 -.01498883  00000+0 -75254-2 0  9992
2 67936  42.9993 205.8188 0001712 265.9381  82.1028 15.83467434  3005
